RADUGA-1 3              
1 22981U 94008A   26062.48674147 -.00000015  00000+0  00000+0 0  9995
2 22981  14.2130 349.0079 0001852 282.1221 127.7409  1.00322885117425
USA 99 (MILSTAR-1 1)    
1 22988U 94009A   26062.40878174 -.00000207  00000+0  00000+0 0  9994
2 22988  17.4611  28.8471 0004279 304.4362 245.0746  1.00273082 31897
TITAN 4 CENTAUR R/B     
1 22989U 94009B   26062.29286352 -.00000370  00000+0  00000+0 0  9994
2 22989  16.7069  23.8004 0015108 239.9268 119.9281  1.00594466 24228
RADUGA 31               
1 23010U 94012A   26062.57984921 -.00000155  00000+0  00000+0 0  9993
2 23010  14.1775 349.0205 0000651 175.6396 285.8502  1.00206094117297
GORIZONT 30             
1 23108U 94030A   26062.14980023 -.00000304  00000+0  00000+0 0  9999
2 23108  14.1034 348.9738 0005937 288.8824 252.3820  1.00210137116392
UFO 3 (USA 104)         
1 23132U 94035A   26062.08575324 -.00000098  00000+0  00000+0 0  9998
2 23132  12.3203   6.3474 0005711 293.0655 244.3362  1.00265445130636
COSMOS 2282             
1 23168U 94038A   26062.61086490  .00000064  00000+0  00000+0 0  9992
2 23168  13.8872 353.4728 0004604 122.0387  95.5775  1.00241027115945
COSMOS 2291             
1 23267U 94060A   26062.09350061 -.00000126  00000+0  00000+0 0  9997
2 23267  14.1859 350.4259 0006660 240.9241 311.4248  1.00279371115132
SL-12 R/B(2)            
1 23270U 94060D   26062.45461586  .00000093  00000+0  00000+0 0  9998
2 23270  14.2898 350.8799 0006133 152.8993  30.4247  1.00072774114485
EXPRESS 1               
1 23319U 94067A   26062.77157838 -.00000338  00000+0  00000+0 0  9999
2 23319  14.4899   2.8056 0006563 268.4174 282.4482  0.99824697114525
SL-12 R/B(2)            
1 23322U 94067D   26061.12266919 -.00000244  00000+0  00000+0 0  9998
2 23322  13.9267 345.6769 0005760 143.6420  45.9828  1.00237009114936
ELEKTRO (GOMS 1)        
1 23327U 94069A   26062.76847439 -.00000111  00000+0  00000+0 0  9991
2 23327  14.5145 350.1040 0008798 267.7829 254.1541  1.00288864114819
SL-12 R/B(2)            
1 23330U 94069D   26060.21947185 -.00000285  00000+0  00000+0 0  9994
2 23330  14.5145 350.1662 0020439 151.6389  26.7111  1.00107830114573
LUCH                    
1 23426U 94082A   26061.71296915 -.00000308  00000+0  00000+0 0  9995
2 23426  14.7555 355.4247 0005134 233.2651 126.6974  1.00186437114192
RADUGA 32               
1 23448U 94087A   26062.49187348 -.00000163  00000+0  00000+0 0  9998
2 23448  14.3358 351.7728 0008694 269.5395 156.6496  1.00277991131824
SL-12 R/B(2)            
1 23451U 94087D   26061.88476852  .00000058  00000+0  00000+0 0  9997
2 23451  14.3576 351.7908 0008063 136.7978  48.0997  1.00059003 46212
UFO 4 (USA 108)         
1 23467U 95003A   26062.62061422 -.00000031  00000+0  00000+0 0  9991
2 23467   9.6707  13.5713 0003576 331.3291 212.1830  1.00272742113890
