[{"OBJECT_NAME":"RADUGA-1 3","OBJECT_ID":"1994-008A","EPOCH":"2026-03-03T11:40:54.463008","MEAN_MOTION":1.00322885,"ECCENTRICITY":0.00018525,"INCLINATION":14.213,"RA_OF_ASC_NODE":349.0079,"ARG_OF_PERICENTER":282.1221,"MEAN_ANOMALY":127.7409,"EPHEMERIS_TYPE":0,"CLASSIFICATION_TYPE":"U","NORAD_CAT_ID":22981,"ELEMENT_SET_NO":999,"REV_AT_EPOCH":11742,"BSTAR":0,"MEAN_MOTION_DOT":-1.5e-7,"MEAN_MOTION_DDOT":0},{"OBJECT_NAME":"USA 99 (MILSTAR-1 1)","OBJECT_ID":"1994-009A","EPOCH":"2026-03-03T09:48:38.742336","MEAN_MOTION":1.00273082,"ECCENTRICITY":0.00042799,"INCLINATION":17.4611,"RA_OF_ASC_NODE":28.8471,"ARG_OF_PERICENTER":304.4362,"MEAN_ANOMALY":245.0746,"EPHEMERIS_TYPE":0,"CLASSIFICATION_TYPE":"U","NORAD_CAT_ID":22988,"ELEMENT_SET_NO":999,"REV_AT_EPOCH":3189,"BSTAR":0,"MEAN_MOTION_DOT":-2.07e-6,"MEAN_MOTION_DDOT":0},{"OBJECT_NAME":"TITAN 4 CENTAUR R/B","OBJECT_ID":"1994-009B","EPOCH":"2026-03-03T07:01:43.408128","MEAN_MOTION":1.00594466,"ECCENTRICITY":0.00151086,"INCLINATION":16.7069,"RA_OF_ASC_NODE":23.8004,"ARG_OF_PERICENTER":239.9268,"MEAN_ANOMALY":119.9281,"EPHEMERIS_TYPE":0,"CLASSIFICATION_TYPE":"U","NORAD_CAT_ID":22989,"ELEMENT_SET_NO":999,"REV_AT_EPOCH":2422,"BSTAR":0,"MEAN_MOTION_DOT":-3.7e-6,"MEAN_MOTION_DDOT":0},{"OBJECT_NAME":"RADUGA 31","OBJECT_ID":"1994-012A","EPOCH":"2026-03-03T13:54:58.971744","MEAN_MOTION":1.00206094,"ECCENTRICITY":6.51e-5,"INCLINATION":14.1775,"RA_OF_ASC_NODE":349.0205,"ARG_OF_PERICENTER":175.6396,"MEAN_ANOMALY":285.8502,"EPHEMERIS_TYPE":0,"CLASSIFICATION_TYPE":"U","NORAD_CAT_ID":23010,"ELEMENT_SET_NO":999,"REV_AT_EPOCH":11729,"BSTAR":0,"MEAN_MOTION_DOT":-1.55e-6,"MEAN_MOTION_DDOT":0},{"OBJECT_NAME":"GORIZONT 30","OBJECT_ID":"1994-030A","EPOCH":"2026-03-03T03:35:42.739872","MEAN_MOTION":1.00210137,"ECCENTRICITY":0.00059374,"INCLINATION":14.1034,"RA_OF_ASC_NODE":348.9738,"ARG_OF_PERICENTER":288.8824,"MEAN_ANOMALY":252.382,"EPHEMERIS_TYPE":0,"CLASSIFICATION_TYPE":"U","NORAD_CAT_ID":23108,"ELEMENT_SET_NO":999,"REV_AT_EPOCH":11639,"BSTAR":0,"MEAN_MOTION_DOT":-3.04e-6,"MEAN_MOTION_DDOT":0},{"OBJECT_NAME":"UFO 3 (USA 104)","OBJECT_ID":"1994-035A","EPOCH":"2026-03-03T02:03:29.079936","MEAN_MOTION":1.00265445,"ECCENTRICITY":0.00057118,"INCLINATION":12.3203,"RA_OF_ASC_NODE":6.3474,"ARG_OF_PERICENTER":293.0655,"MEAN_ANOMALY":244.3362,"EPHEMERIS_TYPE":0,"CLASSIFICATION_TYPE":"U","NORAD_CAT_ID":23132,"ELEMENT_SET_NO":999,"REV_AT_EPOCH":13063,"BSTAR":0,"MEAN_MOTION_DOT":-9.8e-7,"MEAN_MOTION_DDOT":0},{"OBJECT_NAME":"COSMOS 2282","OBJECT_ID":"1994-038A","EPOCH":"2026-03-03T14:39:38.727360","MEAN_MOTION":1.00241027,"ECCENTRICITY":0.0004604,"INCLINATION":13.8872,"RA_OF_ASC_NODE":353.4728,"ARG_OF_PERICENTER":122.0387,"MEAN_ANOMALY":95.5775,"EPHEMERIS_TYPE":0,"CLASSIFICATION_TYPE":"U","NORAD_CAT_ID":23168,"ELEMENT_SET_NO":999,"REV_AT_EPOCH":11594,"BSTAR":0,"MEAN_MOTION_DOT":6.4e-7,"MEAN_MOTION_DDOT":0},{"OBJECT_NAME":"COSMOS 2291","OBJECT_ID":"1994-060A","EPOCH":"2026-03-03T02:14:38.452704","MEAN_MOTION":1.00279371,"ECCENTRICITY":0.00066603,"INCLINATION":14.1859,"RA_OF_ASC_NODE":350.4259,"ARG_OF_PERICENTER":240.9241,"MEAN_ANOMALY":311.4248,"EPHEMERIS_TYPE":0,"CLASSIFICATION_TYPE":"U","NORAD_CAT_ID":23267,"ELEMENT_SET_NO":999,"REV_AT_EPOCH":11513,"BSTAR":0,"MEAN_MOTION_DOT":-1.26e-6,"MEAN_MOTION_DDOT":0},{"OBJECT_NAME":"SL-12 R/B(2)","OBJECT_ID":"1994-060D","EPOCH":"2026-03-03T10:54:38.810304","MEAN_MOTION":1.00072774,"ECCENTRICITY":0.00061336,"INCLINATION":14.2898,"RA_OF_ASC_NODE":350.8799,"ARG_OF_PERICENTER":152.8993,"MEAN_ANOMALY":30.4247,"EPHEMERIS_TYPE":0,"CLASSIFICATION_TYPE":"U","NORAD_CAT_ID":23270,"ELEMENT_SET_NO":999,"REV_AT_EPOCH":11448,"BSTAR":0,"MEAN_MOTION_DOT":9.3e-7,"MEAN_MOTION_DDOT":0},{"OBJECT_NAME":"EXPRESS 1","OBJECT_ID":"1994-067A","EPOCH":"2026-03-03T18:31:04.372032","MEAN_MOTION":0.99824697,"ECCENTRICITY":0.0006563,"INCLINATION":14.4899,"RA_OF_ASC_NODE":2.8056,"ARG_OF_PERICENTER":268.4174,"MEAN_ANOMALY":282.4482,"EPHEMERIS_TYPE":0,"CLASSIFICATION_TYPE":"U","NORAD_CAT_ID":23319,"ELEMENT_SET_NO":999,"REV_AT_EPOCH":11452,"BSTAR":0,"MEAN_MOTION_DOT":-3.38e-6,"MEAN_MOTION_DDOT":0},{"OBJECT_NAME":"SL-12 R/B(2)","OBJECT_ID":"1994-067D","EPOCH":"2026-03-02T02:56:38.618016","MEAN_MOTION":1.00237009,"ECCENTRICITY":0.00057606,"INCLINATION":13.9267,"RA_OF_ASC_NODE":345.6769,"ARG_OF_PERICENTER":143.642,"MEAN_ANOMALY":45.9828,"EPHEMERIS_TYPE":0,"CLASSIFICATION_TYPE":"U","NORAD_CAT_ID":23322,"ELEMENT_SET_NO":999,"REV_AT_EPOCH":11493,"BSTAR":0,"MEAN_MOTION_DOT":-2.44e-6,"MEAN_MOTION_DDOT":0},{"OBJECT_NAME":"ELEKTRO (GOMS 1)","OBJECT_ID":"1994-069A","EPOCH":"2026-03-03T18:26:36.187296","MEAN_MOTION":1.00288864,"ECCENTRICITY":0.0008798,"INCLINATION":14.5145,"RA_OF_ASC_NODE":350.104,"ARG_OF_PERICENTER":267.7829,"MEAN_ANOMALY":254.1541,"EPHEMERIS_TYPE":0,"CLASSIFICATION_TYPE":"U","NORAD_CAT_ID":23327,"ELEMENT_SET_NO":999,"REV_AT_EPOCH":11481,"BSTAR":0,"MEAN_MOTION_DOT":-1.11e-6,"MEAN_MOTION_DDOT":0},{"OBJECT_NAME":"SL-12 R/B(2)","OBJECT_ID":"1994-069D","EPOCH":"2026-03-01T05:16:02.367840","MEAN_MOTION":1.0010783,"ECCENTRICITY":0.0020439,"INCLINATION":14.5145,"RA_OF_ASC_NODE":350.1662,"ARG_OF_PERICENTER":151.6389,"MEAN_ANOMALY":26.7111,"EPHEMERIS_TYPE":0,"CLASSIFICATION_TYPE":"U","NORAD_CAT_ID":23330,"ELEMENT_SET_NO":999,"REV_AT_EPOCH":11457,"BSTAR":0,"MEAN_MOTION_DOT":-2.85e-6,"MEAN_MOTION_DDOT":0},{"OBJECT_NAME":"LUCH","OBJECT_ID":"1994-082A","EPOCH":"2026-03-02T17:06:40.534560","MEAN_MOTION":1.00186437,"ECCENTRICITY":0.00051345,"INCLINATION":14.7555,"RA_OF_ASC_NODE":355.4247,"ARG_OF_PERICENTER":233.2651,"MEAN_ANOMALY":126.6974,"EPHEMERIS_TYPE":0,"CLASSIFICATION_TYPE":"U","NORAD_CAT_ID":23426,"ELEMENT_SET_NO":999,"REV_AT_EPOCH":11419,"BSTAR":0,"MEAN_MOTION_DOT":-3.08e-6,"MEAN_MOTION_DDOT":0},{"OBJECT_NAME":"RADUGA 32","OBJECT_ID":"1994-087A","EPOCH":"2026-03-03T11:48:17.868672","MEAN_MOTION":1.00277991,"ECCENTRICITY":0.00086944,"INCLINATION":14.3358,"RA_OF_ASC_NODE":351.7728,"ARG_OF_PERICENTER":269.5395,"MEAN_ANOMALY":156.6496,"EPHEMERIS_TYPE":0,"CLASSIFICATION_TYPE":"U","NORAD_CAT_ID":23448,"ELEMENT_SET_NO":999,"REV_AT_EPOCH":13182,"BSTAR":0,"MEAN_MOTION_DOT":-1.63e-6,"MEAN_MOTION_DDOT":0},{"OBJECT_NAME":"SL-12 R/B(2)","OBJECT_ID":"1994-087D","EPOCH":"2026-03-02T21:14:04.000128","MEAN_MOTION":1.00059003,"ECCENTRICITY":0.0008063,"INCLINATION":14.3576,"RA_OF_ASC_NODE":351.7908,"ARG_OF_PERICENTER":136.7978,"MEAN_ANOMALY":48.0997,"EPHEMERIS_TYPE":0,"CLASSIFICATION_TYPE":"U","NORAD_CAT_ID":23451,"ELEMENT_SET_NO":999,"REV_AT_EPOCH":4621,"BSTAR":0,"MEAN_MOTION_DOT":5.8e-7,"MEAN_MOTION_DDOT":0},{"OBJECT_NAME":"UFO 4 (USA 108)","OBJECT_ID":"1995-003A","EPOCH":"2026-03-03T14:53:41.068608","MEAN_MOTION":1.00272742,"ECCENTRICITY":0.0003576,"INCLINATION":9.6707,"RA_OF_ASC_NODE":13.5713,"ARG_OF_PERICENTER":331.3291,"MEAN_ANOMALY":212.183,"EPHEMERIS_TYPE":0,"CLASSIFICATION_TYPE":"U","NORAD_CAT_ID":23467,"ELEMENT_SET_NO":999,"REV_AT_EPOCH":11389,"BSTAR":0,"MEAN_MOTION_DOT":-3.1e-7,"MEAN_MOTION_DDOT":0}]
